NORAD_CAT_ID,OBJECT_NAME,OBJECT_TYPE,EPOCH,MEAN_MOTION,ECCENTRICITY,INCLINATION,RA_OF_ASC_NODE,ARG_OF_PERICENTER,MEAN_ANOMALY,BSTAR,MEAN_MOTION_DOT,MEAN_MOTION_DDOT,TLE_LINE0,TLE_LINE1,TLE_LINE2,SEMIMAJOR_AXIS,PERIOD,APOGEE,PERIGEE,DECAYED
49433.0,STARLINK-3079,PAYLOAD,2023-06-28 17:01:14,15.08831905,0.0001121,53.2183,310.8707,82.9206,277.1914,-2.1917e-06,-3.23e-06,0.0,0 STARLINK-3079,1 49433U 21104AB  23179.70919255 -.00000323  00000-0 -21917-5 0  9996,2 49433  53.2183 310.8707 0001121  82.9206 277.1914 15.08831905 91309,6917.905,95.438,540.546,538.995,0.0
49433.0,STARLINK-3079,PAYLOAD,2023-06-29 08:55:05,15.08841745,0.0001013,53.2192,307.8962,88.5876,271.5232,0.00020267,2.939e-05,0.0,0 STARLINK-3079,1 49433U 21104AB  23180.37158790  .00002939  00000-0  20267-3 0  9998,2 49433  53.2192 307.8962 0001013  88.5876 271.5232 15.08841745 91408,6917.875,95.437,540.441,539.039,0.0
49433.0,STARLINK-3079,PAYLOAD,2023-06-29 16:52:00,15.08853708,9.72e-05,53.2177,306.4099,100.8149,259.2952,0.00023343,3.431e-05,0.0,0 STARLINK-3079,1 49433U 21104AB  23180.70278010  .00003431  00000-0  23343-3 0  9999,2 49433  53.2177 306.4099 0000972 100.8149 259.2952 15.08853708 91450,6917.838,95.437,540.376,539.031,0.0
49433.0,STARLINK-3079,PAYLOAD,2023-07-01 00:39:43,15.08838355,0.0001092,53.217,300.4643,86.7251,273.3866,1.8509e-05,7e-08,0.0,0 STARLINK-3079,1 49433U 21104AB  23182.02758639  .00000007  00000-0  18509-4 0  9991,2 49433  53.2170 300.4643 0001092  86.7251 273.3866 15.08838355 91656,6917.885,95.438,540.506,538.995,0.0
49433.0,STARLINK-3079,PAYLOAD,2023-07-02 14:48:58,15.08840502,0.0001093,53.218,293.3275,88.9818,271.13,7.9574e-05,9.79e-06,0.0,0 STARLINK-3079,1 49433U 21104AB  23183.61734658  .00000979  00000-0  79574-4 0  9999,2 49433  53.2180 293.3275 0001093  88.9818 271.1300 15.08840502 91894,6917.879,95.438,540.5,538.988,0.0
49433.0,STARLINK-3079,PAYLOAD,2023-07-04 00:12:04,15.08831771,2.49e-05,53.2182,287.0833,69.6004,290.5015,-5.7043e-05,-1.195e-05,0.0,0 STARLINK-3079,1 49433U 21104AB  23185.00838960 -.00001195  00000-0 -57043-4 0  9995,2 49433  53.2182 287.0833 0000249  69.6004 290.5015 15.08831771 92102,6917.906,95.438,539.943,539.598,0.0
49433.0,STARLINK-3079,PAYLOAD,2023-07-05 00:02:52,15.08842424,0.0001227,53.2177,282.6232,71.9182,288.1943,0.00015036,2.106e-05,0.0,0 STARLINK-3079,1 49433U 21104AB  23186.00199140  .00002106  00000-0  15036-3 0  9992,2 49433  53.2177 282.6232 0001227  71.9182 288.1943 15.08842424 92256,6917.873,95.437,540.587,538.889,0.0
49433.0,STARLINK-3079,PAYLOAD,2023-07-06 09:25:57,15.08845591,0.0001147,53.2167,276.3784,74.2333,285.8786,0.00020586,2.99e-05,0.0,0 STARLINK-3079,1 49433U 21104AB  23187.39302939  .00002990  00000-0  20586-3 0  9994,2 49433  53.2167 276.3784 0001147  74.2333 285.8786 15.08845591 92462,6917.863,95.437,540.522,538.935,0.0
49433.0,STARLINK-3079,PAYLOAD,2023-07-07 10:52:07,15.08842977,0.0001042,53.2166,271.6197,79.5679,280.543,8.7684e-05,1.108e-05,0.0,0 STARLINK-3079,1 49433U 21104AB  23188.45286836  .00001108  00000-0  87684-4 0  9992,2 49433  53.2166 271.6197 0001042  79.5679 280.5430 15.08842977 92623,6917.871,95.437,540.457,539.015,0.0
49433.0,STARLINK-3079,PAYLOAD,2023-07-08 17:04:26,15.08847534,0.0001032,53.2166,265.9702,84.9633,275.1477,0.00011248,1.503e-05,0.0,0 STARLINK-3079,1 49433U 21104AB  23189.71142354  .00001503  00000-0  11248-3 0  9999,2 49433  53.2166 265.9702 0001032  84.9633 275.1477 15.08847534 92816,6917.857,95.437,540.436,539.008,0.0
49433.0,STARLINK-3079,PAYLOAD,2023-07-08 21:50:37,15.08827557,0.0001687,53.2165,265.0755,83.7853,276.3332,-0.00017901,-3.135e-05,0.0,0 STARLINK-3079,1 49433U 21104AB  23189.91015579 -.00003135  00000-0 -17901-3 0  9996,2 49433  53.2165 265.0755 0001687  83.7853 276.3332 15.08827557 92840,6917.918,95.438,540.95,538.616,0.0
49433.0,STARLINK-3079,PAYLOAD,2023-07-10 04:02:57,15.08836355,0.0001034,53.2164,259.4276,91.2388,268.8723,0.00013291,1.828e-05,0.0,0 STARLINK-3079,1 49433U 21104AB  23191.16871822  .00001828  00000-0  13291-3 0  9990,2 49433  53.2164 259.4276 0001034  91.2388 268.8723 15.08836355 93035,6917.892,95.438,540.472,539.041,0.0
49433.0,STARLINK-3079,PAYLOAD,2023-07-11 16:36:48,15.08857009,0.0001078,53.2153,252.5882,86.5322,273.5793,0.00047401,7.268e-05,0.0,0 STARLINK-3079,1 49433U 21104AB  23192.69223221  .00007268  00000-0  47401-3 0  9997,2 49433  53.2153 252.5882 0001078  86.5322 273.5793 15.08857009 93267,6917.828,95.436,540.439,538.948,0.0
49433.0,STARLINK-3079,PAYLOAD,2023-07-12 03:44:31,15.08844578,9.84e-05,53.2156,250.5069,85.7161,274.3943,0.00011285,1.509e-05,0.0,0 STARLINK-3079,1 49433U 21104AB  23193.15591456  .00001509  00000-0  11285-3 0  9990,2 49433  53.2156 250.5069 0000984  85.7161 274.3943 15.08844578 93333,6917.866,95.437,540.412,539.051,0.0
49433.0,STARLINK-3079,PAYLOAD,2023-07-13 09:56:50,15.08839682,0.0001256,53.2155,244.857,81.6044,278.509,6.7235e-05,7.82e-06,0.0,0 STARLINK-3079,1 49433U 21104AB  23194.41447572  .00000782  00000-0  67235-4 0  9998,2 49433  53.2155 244.8570 0001256  81.6044 278.5090 15.08839682 93523,6917.881,95.438,540.615,538.877,0.0
49433.0,STARLINK-3079,PAYLOAD,2023-07-14 14:33:46,15.08845568,0.0001222,53.2169,239.5043,86.6839,273.4293,6.7551e-05,7.88e-06,0.0,0 STARLINK-3079,1 49433U 21104AB  23195.60679311  .00000788  00000-0  67551-4 0  9995,2 49433  53.2169 239.5043 0001222  86.6839 273.4293 15.08845568 93703,6917.863,95.437,540.574,538.883,0.0
49433.0,STARLINK-3079,PAYLOAD,2023-07-15 08:03:01,15.08836671,0.0001213,53.2171,236.2318,104.5274,255.5853,5.4288e-05,5.76e-06,0.0,0 STARLINK-3079,1 49433U 21104AB  23196.33543895  .00000576  00000-0  54288-4 0  9991,2 49433  53.2171 236.2318 0001213 104.5274 255.5853 15.08836671 93818,6917.891,95.438,540.595,538.916,0.0
49433.0,STARLINK-3079,PAYLOAD,2023-07-16 09:29:12,15.0884048,0.000137,53.2172,231.4755,121.2947,238.818,-2.6976e-05,-7.17e-06,0.0,0 STARLINK-3079,1 49433U 21104AB  23197.39528142 -.00000717  00000-0 -26976-4 0  9998,2 49433  53.2172 231.4755 0001370 121.2947 238.8180 15.08840480 93975,6917.879,95.438,540.692,538.796,0.0
49433.0,STARLINK-3079,PAYLOAD,2023-07-17 10:55:22,15.08839274,0.0001011,53.2168,226.7178,98.3443,261.7664,7.6261e-05,9.26e-06,0.0,0 STARLINK-3079,1 49433U 21104AB  23198.45512330  .00000926  00000-0  76261-4 0  9990,2 49433  53.2168 226.7178 0001011  98.3443 261.7664 15.08839274 94133,6917.883,95.438,540.447,539.048,0.0
49433.0,STARLINK-3079,PAYLOAD,2023-07-17 18:52:17,15.08856077,9.62e-05,53.2169,225.2306,103.1443,256.9657,-0.00015787,-2.8e-05,0.0,0 STARLINK-3079,1 49433U 21104AB  23198.78631638 -.00002800  00000-0 -15787-3 0  9999,2 49433  53.2169 225.2306 0000962 103.1443 256.9657 15.08856077 94183,6917.831,95.437,540.362,539.031,0.0
49433.0,STARLINK-3079,PAYLOAD,2023-07-18 02:49:14,15.08837702,9.48e-05,53.2165,223.7437,95.5039,264.6062,0.00013919,1.928e-05,0.0,0 STARLINK-3079,1 49433U 21104AB  23199.11752394  .00001928  00000-0  13919-3 0  9993,2 49433  53.2165 223.7437 0000948  95.5039 264.6062 15.08837702 94232,6917.887,95.438,540.408,539.097,0.0
49433.0,STARLINK-3079,PAYLOAD,2023-07-19 09:01:33,15.08838556,9.95e-05,53.2167,218.0937,89.6188,270.4918,3.9217e-05,3.36e-06,0.0,0 STARLINK-3079,1 49433U 21104AB  23200.37608740  .00000336  00000-0  39217-4 0  9991,2 49433  53.2167 218.0937 0000995  89.6188 270.4918 15.08838556 94421,6917.885,95.438,540.438,539.061,0.0
49433.0,STARLINK-3079,PAYLOAD,2023-07-21 00:46:12,15.08841237,0.0001002,53.2165,210.6595,79.4684,280.6421,9.7005e-05,1.256e-05,0.0,0 STARLINK-3079,1 49433U 21104AB  23202.03208361  .00001256  00000-0  97005-4 0  9992,2 49433  53.2165 210.6595 0001002  79.4684 280.6421 15.08841237 94674,6917.877,95.437,540.435,539.048,0.0
49433.0,STARLINK-3079,PAYLOAD,2023-07-24 00:18:33,15.08834696,0.0001076,53.2165,197.2774,92.2194,267.8921,3.1589e-05,2.15e-06,0.0,0 STARLINK-3079,1 49433U 21104AB  23205.01289027  .00000215  00000-0  31589-4 0  9990,2 49433  53.2165 197.2774 0001076  92.2194 267.8921 15.08834696 95127,6917.897,95.438,540.506,539.017,0.0
49433.0,STARLINK-3079,PAYLOAD,2023-07-25 08:06:16,15.08840005,0.0001145,53.2169,191.3312,90.3186,269.7937,6.5348e-05,7.52e-06,0.0,0 STARLINK-3079,1 49433U 21104AB  23206.33768933  .00000752  00000-0  65348-4 0  9990,2 49433  53.2169 191.3312 0001145  90.3186 269.7937 15.08840005 95322,6917.88,95.438,540.537,538.953,0.0
49433.0,STARLINK-3079,PAYLOAD,2023-07-26 03:10:53,15.08841769,0.0001125,53.2172,187.7623,90.023,270.0891,5.0475e-05,5.16e-06,0.0,0 STARLINK-3079,1 49433U 21104AB  23207.13256833  .00000516  00000-0  50475-4 0  9993,2 49433  53.2172 187.7623 0001125  90.0230 270.0891 15.08841769 95440,6917.875,95.437,540.518,538.962,0.0
49433.0,STARLINK-3079,PAYLOAD,2023-07-26 22:15:31,15.0884215,0.0001241,53.2163,184.1933,87.4656,272.6478,7.1044e-05,8.43e-06,0.0,0 STARLINK-3079,1 49433U 21104AB  23207.92744858  .00000843  00000-0  71044-4 0  9997,2 49433  53.2163 184.1933 0001241  87.4656 272.6478 15.08842150 95563,6917.874,95.437,540.597,538.88,0.0
49433.0,STARLINK-3079,PAYLOAD,2023-07-27 07:47:50,15.08844208,0.0001238,53.2164,182.4099,87.9609,272.1525,8.4521e-05,1.058e-05,0.0,0 STARLINK-3079,1 49433U 21104AB  23208.32488604  .00001058  00000-0  84521-4 0  9999,2 49433  53.2164 182.4099 0001238  87.9609 272.1525 15.08844208 95628,6917.868,95.437,540.589,538.876,0.0
49433.0,STARLINK-3079,PAYLOAD,2023-07-27 15:44:46,15.08835881,0.0001048,53.215,180.9223,93.9806,266.1305,1.6845e-05,-2e-07,0.0,0 STARLINK-3079,1 49433U 21104AB  23208.65609264 -.00000020  00000-0  16845-4 0  9995,2 49433  53.2150 180.9223 0001048  93.9806 266.1305 15.08835881 95671,6917.893,95.438,540.483,539.033,0.0
49433.0,STARLINK-3079,PAYLOAD,2023-07-27 22:06:19,15.08836073,0.0001101,53.215,179.7342,87.5146,272.5972,-3.2137e-05,-7.99e-06,0.0,0 STARLINK-3079,1 49433U 21104AB  23208.92105517 -.00000799  00000-0 -32137-4 0  9993,2 49433  53.2150 179.7342 0001101  87.5146 272.5972 15.08836073 95715,6917.892,95.438,540.519,538.996,0.0
